{
    "links": {
        "self": "http://www.neowsapp.com/rest/v1/neo/3720878?api_key=iIulBulltgU6a56xZRHN4H3l9WmuAYTsLGpBGhQ2"
    },
    "id": "3720878",
    "neo_reference_id": "3720878",
    "name": "(2015 HE183)",
    "designation": "2015 HE183",
    "nasa_jpl_url": "http://ssd.jpl.nasa.gov/sbdb.cgi?sstr=3720878",
    "absolute_magnitude_h": 28.2,
    "estimated_diameter": {
        "kilometers": {
            "estimated_diameter_min": 0.0060891262,
            "estimated_diameter_max": 0.0136157002
        },
        "meters": {
            "estimated_diameter_min": 6.0891262211,
            "estimated_diameter_max": 13.6157001539
        },
        "miles": {
            "estimated_diameter_min": 0.0037836064,
            "estimated_diameter_max": 0.0084604012
        },
        "feet": {
            "estimated_diameter_min": 19.9774488711,
            "estimated_diameter_max": 44.6709336928
        }
    },
    "is_potentially_hazardous_asteroid": false,
    "close_approach_data": [
        {
            "close_approach_date": "2015-04-19",
            "close_approach_date_full": "2015-Apr-19 21:10",
            "epoch_date_close_approach": 1429477800000,
            "relative_velocity": {
                "kilometers_per_second": "13.9237570677",
                "kilometers_per_hour": "50125.5254438212",
                "miles_per_hour": "31146.052184801"
            },
            "miss_distance": {
                "astronomical": "0.005617837",
                "lunar": "2.185338593",
                "kilometers": "840416.44920719",
                "miles": "522210.566311622"
            },
            "orbiting_body": "Moon"
        },
        {
            "close_approach_date": "2015-04-20",
            "close_approach_date_full": "2015-Apr-20 03:38",
            "epoch_date_close_approach": 1429501080000,
            "relative_velocity": {
                "kilometers_per_second": "13.7311291615",
                "kilometers_per_hour": "49432.0649815001",
                "miles_per_hour": "30715.1628214215"
            },
            "miss_distance": {
                "astronomical": "0.0053108031",
                "lunar": "2.0659024059",
                "kilometers": "794484.831749397",
                "miles": "493669.9826677986"
            },
            "orbiting_body": "Earth"
        }
    ],
    "orbital_data": {
        "orbit_id": "6",
        "orbit_determination_date": "2019-04-20 07:25:13",
        "first_observation_date": "2015-04-21",
        "last_observation_date": "2015-04-26",
        "data_arc_in_days": 5,
        "observations_used": 16,
        "orbit_uncertainty": "7",
        "minimum_orbit_intersection": ".00399575",
        "jupiter_tisserand_invariant": "3.396",
        "epoch_osculation": "2459000.5",
        "eccentricity": ".6176810339895948",
        "semi_major_axis": "2.188289690027606",
        "inclination": "3.124119240154116",
        "ascending_node_longitude": "213.3836471549829",
        "orbital_period": "1182.376115449669",
        "perihelion_distance": ".8366246516225844",
        "perihelion_argument": "299.9937043422866",
        "aphelion_distance": "3.539954728432627",
        "perihelion_time": "2459459.261958947179",
        "mean_anomaly": "220.319992037242",
        "mean_motion": ".3044716442560145",
        "equinox": "J2000",
        "orbit_class": {
            "orbit_class_type": "APO",
            "orbit_class_description": "Near-Earth asteroid orbits which cross the Earth’s orbit similar to that of 1862 Apollo",
            "orbit_class_range": "a (semi-major axis) > 1.0 AU; q (perihelion) < 1.017 AU"
        }
    },
    "is_sentry_object": false
}